1 43013U 17073A   25334.79635124  .00000099  00000+0  68046-4 0  9998
2 43013  98.7581 271.2247 0002018 104.1471 255.9929 14.19520519416329
